{"fetched_at":"2026-07-11T09:24:20.417Z","source":"https://celestrak.org/NORAD/elements/gp.php?NAME=GLOBAL&FORMAT=JSON","constellation":"blacksky-gen3","records":[{"OBJECT_NAME":"GLOBAL-31","OBJECT_ID":"2025-033B","EPOCH":"2026-07-11T02:19:38.924256","CLASSIFICATION_TYPE":"U","MEAN_MOTION":15.38261951,"ECCENTRICITY":0.0011557,"INCLINATION":58.9965,"RA_OF_ASC_NODE":219.5321,"ARG_OF_PERICENTER":54.7077,"MEAN_ANOMALY":305.5078,"EPHEMERIS_TYPE":0,"NORAD_CAT_ID":63027,"ELEMENT_SET_NO":999,"REV_AT_EPOCH":7800,"BSTAR":0.00017192,"MEAN_MOTION_DOT":0.00006217,"MEAN_MOTION_DDOT":0},{"OBJECT_NAME":"GLOBAL-32","OBJECT_ID":"2025-118B","EPOCH":"2026-07-10T23:21:49.173120","CLASSIFICATION_TYPE":"U","MEAN_MOTION":15.3921624,"ECCENTRICITY":0.0016147,"INCLINATION":58.9939,"RA_OF_ASC_NODE":36.2647,"ARG_OF_PERICENTER":58.6385,"MEAN_ANOMALY":301.6269,"EPHEMERIS_TYPE":0,"NORAD_CAT_ID":64231,"ELEMENT_SET_NO":999,"REV_AT_EPOCH":6190,"BSTAR":0.00024057,"MEAN_MOTION_DOT":0.00009149,"MEAN_MOTION_DDOT":0},{"OBJECT_NAME":"GLOBAL-33","OBJECT_ID":"2025-267A","EPOCH":"2026-07-09T07:54:46.365120","CLASSIFICATION_TYPE":"U","MEAN_MOTION":15.37229901,"ECCENTRICITY":0.00083993,"INCLINATION":42.02,"RA_OF_ASC_NODE":287.4239,"ARG_OF_PERICENTER":42.3015,"MEAN_ANOMALY":317.8471,"EPHEMERIS_TYPE":0,"NORAD_CAT_ID":66554,"ELEMENT_SET_NO":999,"REV_AT_EPOCH":3545,"BSTAR":0.0002664807,"MEAN_MOTION_DOT":0.00009691,"MEAN_MOTION_DDOT":0},{"OBJECT_NAME":"GLOBAL-34","OBJECT_ID":"2026-043A","EPOCH":"2026-07-11T01:40:22.697760","CLASSIFICATION_TYPE":"U","MEAN_MOTION":15.33055975,"ECCENTRICITY":0.0001358,"INCLINATION":42.0215,"RA_OF_ASC_NODE":82.6418,"ARG_OF_PERICENTER":89.6637,"MEAN_ANOMALY":270.4357,"EPHEMERIS_TYPE":0,"NORAD_CAT_ID":68098,"ELEMENT_SET_NO":999,"REV_AT_EPOCH":1949,"BSTAR":0.00019014,"MEAN_MOTION_DOT":0.00005954,"MEAN_MOTION_DDOT":0}]}
