GLOBAL-31               
1 63027U 25033B   26192.09697829  .00006217  00000+0  17192-3 0  9999
2 63027  58.9965 219.5321 0011557  54.7077 305.5078 15.38261951 78008
GLOBAL-32               
1 64231U 25118B   26191.97348580  .00009149  00000+0  24057-3 0  9999
2 64231  58.9939  36.2647 0016147  58.6385 301.6269 15.39216240 61909
GLOBAL-33               
1 66554U 25267A   26190.32970330  .00009691  00000+0  26648-3 0  9996
2 66554  42.0200 287.4239 0008399  42.3015 317.8471 15.37229901 35452
GLOBAL-34               
1 68098U 26043A   26192.06970715  .00005954  00000+0  19014-3 0  9991
2 68098  42.0215  82.6418 0001358  89.6637 270.4357 15.33055975 19496
